{"type": "FeatureCollection", "features": [ {"type": "Feature", "properties": {"norad_id": 34962, "name": "COSMOS 2251 DEB", "group": "cosmos-2251-debris", "lat": 56.178883815388886, "lon": -155.78574865716016, "alt_km": 739.6355048419537, "timestamp": "2025-12-20T11:30:28.771624+00:00", "meta": {"OBJECT_NAME": "COSMOS 2251 DEB", "OBJECT_ID": "1993-036AER", "EPOCH": "2025-12-18T22:43:00.041664", "MEAN_MOTION": 14.4653439, "ECCENTRICITY": 0.00188463, "INCLINATION": 74.0286, "RA_OF_ASC_NODE": 181.7701, "ARG_OF_PERICENTER": 294.3203, "MEAN_ANOMALY": 65.5987, "EPHEMERIS_TYPE": 0, "CLASSIFICATION_TYPE": "U", "NORAD_CAT_ID": 34962, "ELEMENT_SET_NO": 999, "REV_AT_EPOCH": 87668, "BSTAR": 0.00031666528, "MEAN_MOTION_DOT": 1.116e-05, "MEAN_MOTION_DDOT": 0}, "tle": {"line1": "1 34962U 93036AER 25352.94652826  .00001116  00000+0  31667-3 0  9998", "line2": "2 34962  74.0286 181.7701 0018846 294.3203  65.5987 14.46534390876682"}}, "geometry": {"type": "Point", "coordinates": [-155.78574865716016, 56.178883815388886]}}, {"type": "Feature", "properties": {"norad_id": 34963, "name": "COSMOS 2251 DEB", "group": "cosmos-2251-debris", "lat": 73.4625660122616, "lon": 101.1375568399241, "alt_km": 736.7903700474708, "timestamp": "2025-12-20T11:30:28.771633+00:00", "meta": {"OBJECT_NAME": "COSMOS 2251 DEB", "OBJECT_ID": "1993-036AES", "EPOCH": "2025-12-19T10:17:44.598624", "MEAN_MOTION": 14.51142917, "ECCENTRICITY": 0.0042291, "INCLINATION": 74.1714, "RA_OF_ASC_NODE": 30.2633, "ARG_OF_PERICENTER": 225.4927, "MEAN_ANOMALY": 134.2777, "EPHEMERIS_TYPE": 0, "CLASSIFICATION_TYPE": "U", "NORAD_CAT_ID": 34963, "ELEMENT_SET_NO": 999, "REV_AT_EPOCH": 86898, "BSTAR": 0.00083703, "MEAN_MOTION_DOT": 3.333e-05, "MEAN_MOTION_DDOT": 0}, "tle": {"line1": "1 34963U 93036AES 25353.42898841  .00003333  00000+0  83703-3 0  9993", "line2": "2 34963  74.1714  30.2633 0042291 225.4927 134.2777 14.51142917868982"}}, "geometry": {"type": "Point", "coordinates": [101.1375568399241, 73.4625660122616]}}, {"type": "Feature", "properties": {"norad_id": 34964, "name": "COSMOS 2251 DEB", "group": "cosmos-2251-debris", "lat": 40.76723269583897, "lon": 140.01928600419782, "alt_km": 795.2382710418569, "timestamp": "2025-12-20T11:30:28.771643+00:00", "meta": {"OBJECT_NAME": "COSMOS 2251 DEB", "OBJECT_ID": "1993-036AET", "EPOCH": "2025-12-18T07:25:04.519776", "MEAN_MOTION": 14.00628567, "ECCENTRICITY": 0.02123167, "INCLINATION": 73.9712, "RA_OF_ASC_NODE": 338.1457, "ARG_OF_PERICENTER": 195.4091, "MEAN_ANOMALY": 164.0515, "EPHEMERIS_TYPE": 0, "CLASSIFICATION_TYPE": "U", "NORAD_CAT_ID": 34964, "ELEMENT_SET_NO": 999, "REV_AT_EPOCH": 84556, "BSTAR": 0.00089791859, "MEAN_MOTION_DOT": 1.6e-05, "MEAN_MOTION_DDOT": 0}, "tle": {"line1": "1 34964U 93036AET 25352.30908009  .00001600  00000+0  89792-3 0  9997", "line2": "2 34964  73.9712 338.1457 0212316 195.4091 164.0515 14.00628567845561"}}, "geometry": {"type": "Point", "coordinates": [140.01928600419782, 40.76723269583897]}}, {"type": "Feature", "properties": {"norad_id": 34965, "name": "COSMOS 2251 DEB", "group": "cosmos-2251-debris", "lat": 66.44702280969867, "lon": -107.01658403378387, "alt_km": 735.674772414478, "timestamp": "2025-12-20T11:30:28.771653+00:00", "meta": {"OBJECT_NAME": "COSMOS 2251 DEB", "OBJECT_ID": "1993-036AEU", "EPOCH": "2025-12-19T15:07:25.013568", "MEAN_MOTION": 14.48723509, "ECCENTRICITY": 0.0026426, "INCLINATION": 74.0517, "RA_OF_ASC_NODE": 115.568, "ARG_OF_PERICENTER": 241.9243, "MEAN_ANOMALY": 117.9244, "EPHEMERIS_TYPE": 0, "CLASSIFICATION_TYPE": "U", "NORAD_CAT_ID": 34965, "ELEMENT_SET_NO": 999, "REV_AT_EPOCH": 87213, "BSTAR": 0.0002461, "MEAN_MOTION_DOT": 9.04e-06, "MEAN_MOTION_DDOT": 0}, "tle": {"line1": "1 34965U 93036AEU 25353.63015062  .00000904  00000+0  24610-3 0  9997", "line2": "2 34965  74.0517 115.5680 0026426 241.9243 117.9244 14.48723509872136"}}, "geometry": {"type": "Point", "coordinates": [-107.01658403378387, 66.44702280969867]}}, {"type": "Feature", "properties": {"norad_id": 34967, "name": "COSMOS 2251 DEB", "group": "cosmos-2251-debris", "lat": -68.29361986490483, "lon": 105.57178588794093, "alt_km": 768.0171155915168, "timestamp": "2025-12-20T11:30:28.771663+00:00", "meta": {"OBJECT_NAME": "COSMOS 2251 DEB", "OBJECT_ID": "1993-036AEW", "EPOCH": "2025-12-13T00:27:20.673792", "MEAN_MOTION": 14.44269018, "ECCENTRICITY": 0.00380101, "INCLINATION": 73.9933, "RA_OF_ASC_NODE": 253.3374, "ARG_OF_PERICENTER": 39.5345, "MEAN_ANOMALY": 320.8573, "EPHEMERIS_TYPE": 0, "CLASSIFICATION_TYPE": "U", "NORAD_CAT_ID": 34967, "ELEMENT_SET_NO": 999, "REV_AT_EPOCH": 64961, "BSTAR": 0.0011451852, "MEAN_MOTION_DOT": 3.946e-05, "MEAN_MOTION_DDOT": 0}, "tle": {"line1": "1 34967U 93036AEW 25347.01898928  .00003946  00000+0  11452-2 0  9992", "line2": "2 34967  73.9933 253.3374 0038010  39.5345 320.8573 14.44269018649616"}}, "geometry": {"type": "Point", "coordinates": [105.57178588794093, -68.29361986490483]}}, {"type": "Feature", "properties": {"norad_id": 34968, "name": "COSMOS 2251 DEB", "group": "cosmos-2251-debris", "lat": 7.80534396945488, "lon": 50.067332965999746, "alt_km": 758.146357185281, "timestamp": "2025-12-20T11:30:28.771673+00:00", "meta": {"OBJECT_NAME": "COSMOS 2251 DEB", "OBJECT_ID": "1993-036AEX", "EPOCH": "2025-12-20T02:29:49.126848", "MEAN_MOTION": 14.59417792, "ECCENTRICITY": 0.0086985, "INCLINATION": 74.0382, "RA_OF_ASC_NODE": 233.0313, "ARG_OF_PERICENTER": 351.5589, "MEAN_ANOMALY": 8.4106, "EPHEMERIS_TYPE": 0, "CLASSIFICATION_TYPE": "U", "NORAD_CAT_ID": 34968, "ELEMENT_SET_NO": 999, "REV_AT_EPOCH": 88585, "BSTAR": 9.6085e-05, "MEAN_MOTION_DOT": 4.47e-06, "MEAN_MOTION_DDOT": 0}, "tle": {"line1": "1 34968U 93036AEX 25354.10404082  .00000447  00000+0  96085-4 0  9995", "line2": "2 34968  74.0382 233.0313 0086985 351.5589   8.4106 14.59417792885855"}}, "geometry": {"type": "Point", "coordinates": [50.067332965999746, 7.80534396945488]}}, {"type": "Feature", "properties": {"norad_id": 34969, "name": "COSMOS 2251 DEB", "group": "cosmos-2251-debris", "lat": -45.156476013139944, "lon": -154.2471575710249, "alt_km": 787.538574994488, "timestamp": "2025-12-20T11:30:28.771683+00:00", "meta": {"OBJECT_NAME": "COSMOS 2251 DEB", "OBJECT_ID": "1993-036AEY", "EPOCH": "2025-12-19T09:18:38.426400", "MEAN_MOTION": 14.32265352, "ECCENTRICITY": 0.0073239, "INCLINATION": 74.0141, "RA_OF_ASC_NODE": 10.9944, "ARG_OF_PERICENTER": 142.5473, "MEAN_ANOMALY": 218.0814, "EPHEMERIS_TYPE": 0, "CLASSIFICATION_TYPE": "U", "NORAD_CAT_ID": 34969, "ELEMENT_SET_NO": 999, "REV_AT_EPOCH": 65232, "BSTAR": 0.00018668, "MEAN_MOTION_DOT": 4.93e-06, "MEAN_MOTION_DDOT": 0}, "tle": {"line1": "1 34969U 93036AEY 25353.38794475  .00000493  00000+0  18668-3 0  9994", "line2": "2 34969  74.0141  10.9944 0073239 142.5473 218.0814 14.32265352652322"}}, "geometry": {"type": "Point", "coordinates": [-154.2471575710249, -45.156476013139944]}}, {"type": "Feature", "properties": {"norad_id": 34971, "name": "COSMOS 2251 DEB", "group": "cosmos-2251-debris", "lat": 48.29057233288501, "lon": 71.48459528061987, "alt_km": 653.6017017881331, "timestamp": "2025-12-20T11:30:28.771719+00:00", "meta": {"OBJECT_NAME": "COSMOS 2251 DEB", "OBJECT_ID": "1993-036AFA", "EPOCH": "2025-12-18T11:38:13.277760", "MEAN_MOTION": 14.55642375, "ECCENTRICITY": 0.00693978, "INCLINATION": 73.9787, "RA_OF_ASC_NODE": 274.0839, "ARG_OF_PERICENTER": 138.3039, "MEAN_ANOMALY": 342.538, "EPHEMERIS_TYPE": 0, "CLASSIFICATION_TYPE": "U", "NORAD_CAT_ID": 34971, "ELEMENT_SET_NO": 999, "REV_AT_EPOCH": 66256, "BSTAR": 0.00012982435, "MEAN_MOTION_DOT": 5.55e-06, "MEAN_MOTION_DDOT": 0}, "tle": {"line1": "1 34971U 93036AFA 25352.48487590  .00000555  00000+0  12982-3 0  9996", "line2": "2 34971  73.9787 274.0839 0069397 138.3039 342.5380 14.55642375662563"}}, "geometry": {"type": "Point", "coordinates": [71.48459528061987, 48.29057233288501]}}, {"type": "Feature", "properties": {"norad_id": 34972, "name": "COSMOS 2251 DEB", "group": "cosmos-2251-debris", "lat": 37.79880741226225, "lon": -158.13142096346107, "alt_km": 633.9207242957536, "timestamp": "2025-12-20T11:30:28.771729+00:00", "meta": {"OBJECT_NAME": "COSMOS 2251 DEB", "OBJECT_ID": "1993-036AFB", "EPOCH": "2025-12-19T02:24:29.780352", "MEAN_MOTION": 14.72980369, "ECCENTRICITY": 0.00332141, "INCLINATION": 73.988, "RA_OF_ASC_NODE": 37.4318, "ARG_OF_PERICENTER": 195.1149, "MEAN_ANOMALY": 195.1869, "EPHEMERIS_TYPE": 0, "CLASSIFICATION_TYPE": "U", "NORAD_CAT_ID": 34972, "ELEMENT_SET_NO": 999, "REV_AT_EPOCH": 87744, "BSTAR": 0.00092049297, "MEAN_MOTION_DOT": 5.933e-05, "MEAN_MOTION_DDOT": 0}, "tle": {"line1": "1 34972U 93036AFB 25353.10034468  .00005933  00000+0  92049-3 0  9996", "line2": "2 34972  73.9880  37.4318 0033214 195.1149 195.1869 14.72980369877449"}}, "geometry": {"type": "Point", "coordinates": [-158.13142096346107, 37.79880741226225]}}, {"type": "Feature", "properties": {"norad_id": 34976, "name": "COSMOS 2251 DEB", "group": "cosmos-2251-debris", "lat": -21.852532387825963, "lon": -75.48089307262897, "alt_km": 611.1242412975334, "timestamp": "2025-12-20T11:30:28.771740+00:00", "meta": {"OBJECT_NAME": "COSMOS 2251 DEB", "OBJECT_ID": "1993-036AFF", "EPOCH": "2025-12-20T03:45:07.153056", "MEAN_MOTION": 14.7671662, "ECCENTRICITY": 0.0047854, "INCLINATION": 74.058, "RA_OF_ASC_NODE": 291.7337, "ARG_OF_PERICENTER": 336.8692, "MEAN_ANOMALY": 83.1588, "EPHEMERIS_TYPE": 0, "CLASSIFICATION_TYPE": "U", "NORAD_CAT_ID": 34976, "ELEMENT_SET_NO": 999, "REV_AT_EPOCH": 88383, "BSTAR": 0.0010233, "MEAN_MOTION_DOT": 7.275e-05, "MEAN_MOTION_DDOT": 0}, "tle": {"line1": "1 34976U 93036AFF 25354.15633279  .00007275  00000+0  10233-2 0  9996", "line2": "2 34976  74.0580 291.7337 0047854 336.8692  83.1588 14.76716620883835"}}, "geometry": {"type": "Point", "coordinates": [-75.48089307262897, -21.852532387825963]}}]}